GLOBALSTAR M075         
1 37192U 10054E   25012.88777846 -.00000070  00000+0  18661-3 0  9999
2 37192  51.9958 294.3906 0000792  63.2178  16.0631 12.62271658656238
GLOBALSTAR M073         
1 37193U 10054F   25012.90324083 -.00000079  00000+0  13883-3 0  9994
2 37193  52.0030 208.0431 0001082  79.1104  69.8572 12.62262526658220
GLOBALSTAR M083         
1 37739U 11033A   25012.75607613 -.00000106  00000+0 -13083-4 0  9999
2 37739  51.9840 157.4331 0000807 107.5275  32.9437 12.62270669627222
GLOBALSTAR M088         
1 37740U 11033B   25012.89847525 -.00000084  00000+0  10868-3 0  9995
2 37740  51.9744  62.6216 0000394 138.1895  49.9857 12.62267297622788
GLOBALSTAR M091         
1 37741U 11033C   25012.74948625 -.00000089  00000+0  84285-4 0  9993
2 37741  52.0018  26.3536 0000185 189.6406 340.4900 12.62272614623557
GLOBALSTAR M085         
1 37742U 11033D   25012.65734757 -.00000090  00000+0  78021-4 0  9996
2 37742  51.9893 337.8104 0000203  41.1144 130.4803 12.62263788624057
GLOBALSTAR M081         
1 37743U 11033E   25012.68349782 -.00000096  00000+0  45708-4 0  9992
2 37743  51.9981 340.4196 0000433  14.1376 157.5949 12.62275208624207
GLOBALSTAR M089         
1 37744U 11033F   25012.93311556 -.00000070  00000+0  18686-3 0  9995
2 37744  51.9940 293.9200 0000951  57.1297 348.3384 12.62264996625087
